start=new Date('2022-11-05T00:00:00.000Z').valueOf();
sats=[{"MEAN_ANOMALY":"315.0771","DECAY_DATE":null,"NORAD_CAT_ID":"48484","MEAN_MOTION":"15.06412649","ARG_OF_PERICENTER":"45.0381","MEAN_MOTION_DOT":"0.00000294","TLE_LINE2":"2 48484  53.0529 283.4488 0002015  45.0381 315.0771 15.06412649 82305","ELEMENT_SET_NO":"999","TIME_SYSTEM":"UTC","CLASSIFICATION_TYPE":"U","OBJECT_TYPE":"PAYLOAD","OBJECT_NAME":"STARLINK-2696","LAUNCH_DATE":"2021-05-09","ECCENTRICITY":"0.00020150","REF_FRAME":"TEME","PERIOD":"95.591","SITE":"AFETR","APOAPSIS":"548.570","BSTAR":"0.00003866900000","EPHEMERIS_TYPE":"0","PERIAPSIS":"545.779","OBJECT_ID":"2021-040BJ","TLE_LINE1":"1 48484U 21040BJ  22308.64958701  .00000294  00000-0  38669-4 0  9991","GP_ID":"216935658","FILE":"3645105","RCS_SIZE":"LARGE","INCLINATION":"53.0529","CENTER_NAME":"EARTH","RA_OF_ASC_NODE":"283.4488","COUNTRY_CODE":"US","MEAN_ELEMENT_THEORY":"SGP4","EPOCH":"2022-11-04T15:35:24.317664","MEAN_MOTION_DDOT":"0.0000000000000","REV_AT_EPOCH":"8230","SEMIMAJOR_AXIS":"6925.310"},{"CLASSIFICATION_TYPE":"U","TIME_SYSTEM":"UTC","TLE_LINE2":"2 48485  53.0539 283.1064 0002064  47.9378 312.1787 15.06400044 82306","ELEMENT_SET_NO":"999","MEAN_MOTION_DOT":"-0.00000204","OBJECT_TYPE":"PAYLOAD","DECAY_DATE":null,"MEAN_ANOMALY":"312.1787","ARG_OF_PERICENTER":"47.9378","NORAD_CAT_ID":"48485","MEAN_MOTION":"15.06400044","EPHEMERIS_TYPE":"0","PERIAPSIS":"545.784","LAUNCH_DATE":"2021-05-09","OBJECT_NAME":"STARLINK-2500","APOAPSIS":"548.643","SITE":"AFETR","BSTAR":"0.00000520350000","PERIOD":"95.592","REF_FRAME":"TEME","ECCENTRICITY":"0.00020640","GP_ID":"216936398","INCLINATION":"53.0539","FILE":"3645105","RCS_SIZE":"LARGE","OBJECT_ID":"2021-040BK","TLE_LINE1":"1 48485U 21040BK  22308.64585888 -.00000204  00000-0  52035-5 0  9990","REV_AT_EPOCH":"8230","MEAN_MOTION_DDOT":"0.0000000000000","SEMIMAJOR_AXIS":"6925.348","EPOCH":"2022-11-04T15:30:02.207232","MEAN_ELEMENT_THEORY":"SGP4","COUNTRY_CODE":"US","RA_OF_ASC_NODE":"283.1064","CENTER_NAME":"EARTH"},{"MEAN_MOTION_DDOT":"0.0000000000000","REV_AT_EPOCH":"8230","SEMIMAJOR_AXIS":"6925.349","CENTER_NAME":"EARTH","RA_OF_ASC_NODE":"283.0780","MEAN_ELEMENT_THEORY":"SGP4","COUNTRY_CODE":"US","EPOCH":"2022-11-04T15:33:58.781664","GP_ID":"216935157","RCS_SIZE":"LARGE","FILE":"3645105","INCLINATION":"53.0553","OBJECT_ID":"2021-040BL","TLE_LINE1":"1 48486U 21040BL  22308.64859701  .00001538  00000-0  12212-3 0  9990","EPHEMERIS_TYPE":"0","PERIAPSIS":"545.462","OBJECT_NAME":"STARLINK-2496","LAUNCH_DATE":"2021-05-09","ECCENTRICITY":"0.00025310","REF_FRAME":"TEME","PERIOD":"95.592","APOAPSIS":"548.967","SITE":"AFETR","BSTAR":"0.00012212000000","MEAN_MOTION_DOT":"0.00001538","TLE_LINE2":"2 48486  53.0553 283.0780 0002531  33.4956 326.6192 15.06399707 82301","ELEMENT_SET_NO":"999","TIME_SYSTEM":"UTC","CLASSIFICATION_TYPE":"U","OBJECT_TYPE":"PAYLOAD","MEAN_ANOMALY":"326.6192","DECAY_DATE":null,"NORAD_CAT_ID":"48486","MEAN_MOTION":"15.06399707","ARG_OF_PERICENTER":"33.4956"},{"EPHEMERIS_TYPE":"0","PERIAPSIS":"545.615","LAUNCH_DATE":"2021-05-09","OBJECT_NAME":"STARLINK-2494","SITE":"AFETR","BSTAR":"0.00013779000000","APOAPSIS":"548.771","ECCENTRICITY":"0.00022790","REF_FRAME":"TEME","PERIOD":"95.592","TLE_LINE2":"2 48487  53.0529 283.0574 0002279  36.0258 324.0884 15.06406673 82311","ELEMENT_SET_NO":"999","CLASSIFICATION_TYPE":"U","TIME_SYSTEM":"UTC","MEAN_MOTION_DOT":"0.00001772","OBJECT_TYPE":"PAYLOAD","DECAY_DATE":null,"MEAN_ANOMALY":"324.0884","ARG_OF_PERICENTER":"36.0258","MEAN_MOTION":"15.06406673","NORAD_CAT_ID":"48487","MEAN_MOTION_DDOT":"0.0000000000000","REV_AT_EPOCH":"8231","SEMIMAJOR_AXIS":"6925.328","COUNTRY_CODE":"US","MEAN_ELEMENT_THEORY":"SGP4","EPOCH":"2022-11-04T15:40:38.630496","RA_OF_ASC_NODE":"283.0574","CENTER_NAME":"EARTH","GP_ID":"216934907","INCLINATION":"53.0529","RCS_SIZE":"LARGE","FILE":"3645105","OBJECT_ID":"2021-040BM","TLE_LINE1":"1 48487U 21040BM  22308.65322489  .00001772  00000-0  13779-3 0  9999"},{"CENTER_NAME":"EARTH","RA_OF_ASC_NODE":"212.5668","MEAN_ELEMENT_THEORY":"SGP4","COUNTRY_CODE":"US","EPOCH":"2022-11-04T18:18:33.886944","MEAN_MOTION_DDOT":"0.0000000000000","REV_AT_EPOCH":"8118","SEMIMAJOR_AXIS":"6925.345","OBJECT_ID":"2021-041A","TLE_LINE1":"1 48553U 21041A   22308.76289221  .00001399  00000-0  11279-3 0  9990","GP_ID":"216935415","FILE":"3645105","RCS_SIZE":"LARGE","INCLINATION":"53.0537","OBJECT_NAME":"STARLINK-2063","LAUNCH_DATE":"2021-05-15","ECCENTRICITY":"0.00015000","REF_FRAME":"TEME","PERIOD":"95.592","BSTAR":"0.00011279000000","SITE":"AFETR","APOAPSIS":"548.249","EPHEMERIS_TYPE":"0","PERIAPSIS":"546.171","MEAN_ANOMALY":"309.7866","DECAY_DATE":null,"NORAD_CAT_ID":"48553","MEAN_MOTION":"15.06401256","ARG_OF_PERICENTER":"50.3255","MEAN_MOTION_DOT":"0.00001399","TLE_LINE2":"2 48553  53.0537 212.5668 0001500  50.3255 309.7866 15.06401256 81183","ELEMENT_SET_NO":"999","CLASSIFICATION_TYPE":"U","TIME_SYSTEM":"UTC","OBJECT_TYPE":"PAYLOAD"},{"PERIOD":"95.592","ECCENTRICITY":"0.00013570","REF_FRAME":"TEME","SITE":"AFETR","BSTAR":"-0.00002119900000","APOAPSIS":"548.136","OBJECT_NAME":"STARLINK-2139","LAUNCH_DATE":"2021-05-15","PERIAPSIS":"546.257","EPHEMERIS_TYPE":"0","NORAD_CAT_ID":"48554","MEAN_MOTION":"15.06405589","ARG_OF_PERICENTER":"71.9152","MEAN_ANOMALY":"288.1984","DECAY_DATE":null,"OBJECT_TYPE":"PAYLOAD","MEAN_MOTION_DOT":"-0.00000597","CLASSIFICATION_TYPE":"U","TIME_SYSTEM":"UTC","ELEMENT_SET_NO":"999","TLE_LINE2":"2 48554  53.0544 212.5429 0001357  71.9152 288.1984 15.06405589 81186","RA_OF_ASC_NODE":"212.5429","CENTER_NAME":"EARTH","EPOCH":"2022-11-04T18:29:09.862656","MEAN_ELEMENT_THEORY":"SGP4","COUNTRY_CODE":"US","SEMIMAJOR_AXIS":"6925.331","REV_AT_EPOCH":"8118","MEAN_MOTION_DDOT":"0.0000000000000","TLE_LINE1":"1 48554U 21041B   22308.77025304 -.00000597  00000-0 -21199-4 0  9996","OBJECT_ID":"2021-041B","RCS_SIZE":"LARGE","FILE":"3645105","INCLINATION":"53.0544","GP_ID":"216935666"},{"EPOCH":"2022-11-04T19:10:16.733856","COUNTRY_CODE":"US","MEAN_ELEMENT_THEORY":"SGP4","RA_OF_ASC_NODE":"222.4196","CENTER_NAME":"EARTH","SEMIMAJOR_AXIS":"6925.153","REV_AT_EPOCH":"8104","MEAN_MOTION_DDOT":"0.0000000000000","TLE_LINE1":"1 48555U 21041C   22308.79880479  .00023564  00000-0  15928-2 0  9999","OBJECT_ID":"2021-041C","INCLINATION":"53.0546","RCS_SIZE":"LARGE","FILE":"3645105","GP_ID":"216936406","BSTAR":"0.00159280000000","SITE":"AFETR","APOAPSIS":"548.150","PERIOD":"95.588","ECCENTRICITY":"0.00016350","REF_FRAME":"TEME","LAUNCH_DATE":"2021-05-15","OBJECT_NAME":"STARLINK-2145","PERIAPSIS":"545.886","EPHEMERIS_TYPE":"0","ARG_OF_PERICENTER":"40.0558","MEAN_MOTION":"15.06463837","NORAD_CAT_ID":"48555","DECAY_DATE":null,"MEAN_ANOMALY":"320.0551","OBJECT_TYPE":"PAYLOAD","CLASSIFICATION_TYPE":"U","TIME_SYSTEM":"UTC","TLE_LINE2":"2 48555  53.0546 222.4196 0001635  40.0558 320.0551 15.06463837 81047","ELEMENT_SET_NO":"999","MEAN_MOTION_DOT":"0.00023564"},{"GP_ID":"216935165","INCLINATION":"53.0541","RCS_SIZE":"LARGE","FILE":"3645105","OBJECT_ID":"2021-041D","TLE_LINE1":"1 48556U 21041D   22308.78775961  .00013883  00000-0  94835-3 0  9996","REV_AT_EPOCH":"8104","MEAN_MOTION_DDOT":"0.0000000000000","SEMIMAJOR_AXIS":"6925.263","EPOCH":"2022-11-04T18:54:22.430304","COUNTRY_CODE":"US","MEAN_ELEMENT_THEORY":"SGP4","RA_OF_ASC_NODE":"222.4685","CENTER_NAME":"EARTH","TIME_SYSTEM":"UTC","CLASSIFICATION_TYPE":"U","TLE_LINE2":"2 48556  53.0541 222.4685 0001550  35.4332 324.6760 15.06427887 81047","ELEMENT_SET_NO":"999","MEAN_MOTION_DOT":"0.00013883","OBJECT_TYPE":"PAYLOAD","DECAY_DATE":null,"MEAN_ANOMALY":"324.6760","ARG_OF_PERICENTER":"35.4332","NORAD_CAT_ID":"48556","MEAN_MOTION":"15.06427887","EPHEMERIS_TYPE":"0","PERIAPSIS":"546.055","LAUNCH_DATE":"2021-05-15","OBJECT_NAME":"STARLINK-2151","SITE":"AFETR","BSTAR":"0.00094835000000","APOAPSIS":"548.202","PERIOD":"95.590","REF_FRAME":"TEME","ECCENTRICITY":"0.00015500"},{"TIME_SYSTEM":"UTC","CLASSIFICATION_TYPE":"U","TLE_LINE2":"2 48557  53.0527 212.7315 0002239  55.8859 304.2342 15.06413508 81178","ELEMENT_SET_NO":"999","MEAN_MOTION_DOT":"0.00001883","OBJECT_TYPE":"PAYLOAD","DECAY_DATE":null,"MEAN_ANOMALY":"304.2342","ARG_OF_PERICENTER":"55.8859","MEAN_MOTION":"15.06413508","NORAD_CAT_ID":"48557","EPHEMERIS_TYPE":"0","PERIAPSIS":"545.622","LAUNCH_DATE":"2021-05-15","OBJECT_NAME":"STARLINK-2155","SITE":"AFETR","APOAPSIS":"548.723","BSTAR":"0.00014522000000","PERIOD":"95.591","ECCENTRICITY":"0.00022390","REF_FRAME":"TEME","GP_ID":"216934915","INCLINATION":"53.0527","RCS_SIZE":"LARGE","FILE":"3645105","OBJECT_ID":"2021-041E","TLE_LINE1":"1 48557U 21041E   22308.72602186  .00001883  00000-0  14522-3 0  9991","REV_AT_EPOCH":"8117","MEAN_MOTION_DDOT":"0.0000000000000","SEMIMAJOR_AXIS":"6925.307","EPOCH":"2022-11-04T17:25:28.288704","COUNTRY_CODE":"US","MEAN_ELEMENT_THEORY":"SGP4","RA_OF_ASC_NODE":"212.7315","CENTER_NAME":"EARTH"},{"OBJECT_ID":"2021-041F","TLE_LINE1":"1 48558U 21041F   22308.78868660 -.00001585  00000-0 -87559-4 0  9991","GP_ID":"216936167","INCLINATION":"53.0532","RCS_SIZE":"LARGE","FILE":"3645105","EPOCH":"2022-11-04T18:55:42.522240","COUNTRY_CODE":"US","MEAN_ELEMENT_THEORY":"SGP4","RA_OF_ASC_NODE":"212.4652","CENTER_NAME":"EARTH","REV_AT_EPOCH":"8032","MEAN_MOTION_DDOT":"0.0000000000000","SEMIMAJOR_AXIS":"6925.361","DECAY_DATE":null,"MEAN_ANOMALY":"285.4223","ARG_OF_PERICENTER":"74.6899","MEAN_MOTION":"15.06395982","NORAD_CAT_ID":"48558","TIME_SYSTEM":"UTC","CLASSIFICATION_TYPE":"U","TLE_LINE2":"2 48558  53.0532 212.4652 0001202  74.6899 285.4223 15.06395982 80327","ELEMENT_SET_NO":"999","MEAN_MOTION_DOT":"-0.00001585","OBJECT_TYPE":"PAYLOAD","LAUNCH_DATE":"2021-05-15","OBJECT_NAME":"STARLINK-2166","APOAPSIS":"548.058","SITE":"AFETR","BSTAR":"-0.00008755900000","PERIOD":"95.592","ECCENTRICITY":"0.00012020","REF_FRAME":"TEME","EPHEMERIS_TYPE":"0","PERIAPSIS":"546.393"}];
